QIANFAN-9               
1 60387U 24140J   25295.80213396  .00000051  00000+0  61061-4 0  9993
2 60387  88.9740 304.6181 0015884 352.4249   7.6660 13.50974500 60454
QIANFAN-10              
1 60388U 24140K   25295.80631045  .00000046  00000+0  53472-4 0  9990
2 60388  88.9748 303.9598 0013585 329.5452  30.4908 13.50971173 60580
QIANFAN-11              
1 60389U 24140L   25295.84329365  .00000044  00000+0  49742-4 0  9997
2 60389  88.9675 304.5812 0013937 353.0441   7.0515 13.50971857 60243
QIANFAN-12              
1 60390U 24140M   25295.86381722  .00000046  00000+0  52100-4 0  9990
2 60390  88.9719 304.6003 0013055   1.9910 358.1291 13.50972199 60373
QIANFAN-13              
1 60391U 24140N   25295.83503219  .00000058  00000+0  70505-4 0  9997
2 60391  88.9731 304.6969 0012983   4.8658 355.2617 13.50972459 60390
QIANFAN-14              
1 60392U 24140P   25295.85962483  .00000032  00000+0  30693-4 0  9998
2 60392  88.9710 304.6028 0016612   2.6356 357.4880 13.50972760 60401
QIANFAN-15              
1 60393U 24140Q   25295.86783848  .00000028  00000+0  24465-4 0  9991
2 60393  88.9730 304.5464 0011951 351.2766   8.8175 13.50970622 60393
QIANFAN-16              
1 60394U 24140R   25295.85567288  .00000035  00000+0  36254-4 0  9996
2 60394  88.9736 304.6663 0014719   7.5513 352.5857 13.50971785 60306
